{
  "links" : {
    "next" : "https://api.nasa.gov/neo/rest/v1/feed?start_date=2010-03-23&end_date=2010-03-23&detailed=true&api_key=t0TVs3DtDT2H8Oy2Zy8m2eVrNsAVKAexjcZXUckd",
    "prev" : "https://api.nasa.gov/neo/rest/v1/feed?start_date=2010-03-21&end_date=2010-03-21&detailed=true&api_key=t0TVs3DtDT2H8Oy2Zy8m2eVrNsAVKAexjcZXUckd",
    "self" : "https://api.nasa.gov/neo/rest/v1/feed?start_date=2010-03-22&end_date=2010-03-22&detailed=true&api_key=t0TVs3DtDT2H8Oy2Zy8m2eVrNsAVKAexjcZXUckd"
  },
  "element_count" : 8,
  "near_earth_objects" : {
    "2010-03-22" : [ {
      "links" : {
        "self" : "https://api.nasa.gov/neo/rest/v1/neo/3515454?api_key=t0TVs3DtDT2H8Oy2Zy8m2eVrNsAVKAexjcZXUckd"
      },
      "neo_reference_id" : "3515454",
      "name" : "(2010 GY23)",
      "nasa_jpl_url" : "http://ssd.jpl.nasa.gov/sbdb.cgi?sstr=3515454",
      "absolute_magnitude_h" : 25.2,
      "estimated_diameter" : {
        "kilometers" : {
          "estimated_diameter_min" : 0.0242412481,
          "estimated_diameter_max" : 0.0542050786
        },
        "meters" : {
          "estimated_diameter_min" : 24.2412481101,
          "estimated_diameter_max" : 54.2050786336
        },
        "miles" : {
          "estimated_diameter_min" : 0.0150628086,
          "estimated_diameter_max" : 0.0336814639
        },
        "feet" : {
          "estimated_diameter_min" : 79.5316564495,
          "estimated_diameter_max" : 177.8381901842
        }
      },
      "is_potentially_hazardous_asteroid" : false,
      "close_approach_data" : [ {
        "close_approach_date" : "2010-03-22",
        "epoch_date_close_approach" : 1269241200000,
        "relative_velocity" : {
          "kilometers_per_second" : "4.135304259",
          "kilometers_per_hour" : "14887.0953324814",
          "miles_per_hour" : "9250.2620970077"
        },
        "miss_distance" : {
          "astronomical" : "0.0644666724",
          "lunar" : "25.0775356293",
          "kilometers" : "9644077",
          "miles" : "5992551.5"
        },
        "orbiting_body" : "Earth"
      } ],
      "orbital_data" : {
        "orbit_id" : "10",
        "orbit_determination_date" : "2017-04-06 08:57:52",
        "orbit_uncertainty" : "8",
        "minimum_orbit_intersection" : ".0601964",
        "jupiter_tisserand_invariant" : "4.509",
        "epoch_osculation" : "2455298.5",
        "eccentricity" : ".2926014196181583",
        "semi_major_axis" : "1.491205373075774",
        "inclination" : "5.08174298490331",
        "ascending_node_longitude" : "190.326226500181",
        "orbital_period" : "665.1270594443452",
        "perihelion_distance" : "1.054876563971577",
        "perihelion_argument" : "346.97609237",
        "aphelion_distance" : "1.927534182179971",
        "perihelion_time" : "2455272.678857361196",
        "mean_anomaly" : "13.97569264094457",
        "mean_motion" : ".5412499685409705",
        "equinox" : "J2000"
      }
    }, {
      "links" : {
        "self" : "https://api.nasa.gov/neo/rest/v1/neo/2215588?api_key=t0TVs3DtDT2H8Oy2Zy8m2eVrNsAVKAexjcZXUckd"
      },
      "neo_reference_id" : "2215588",
      "name" : "215588 (2003 HF2)",
      "nasa_jpl_url" : "http://ssd.jpl.nasa.gov/sbdb.cgi?sstr=2215588",
      "absolute_magnitude_h" : 19.4,
      "estimated_diameter" : {
        "kilometers" : {
          "estimated_diameter_min" : 0.3503926411,
          "estimated_diameter_max" : 0.7835017643
        },
        "meters" : {
          "estimated_diameter_min" : 350.3926411083,
          "estimated_diameter_max" : 783.5017643338
        },
        "miles" : {
          "estimated_diameter_min" : 0.2177238258,
          "estimated_diameter_max" : 0.4868452748
        },
        "feet" : {
          "estimated_diameter_min" : 1149.5821926537,
          "estimated_diameter_max" : 2570.543928497
        }
      },
      "is_potentially_hazardous_asteroid" : true,
      "close_approach_data" : [ {
        "close_approach_date" : "2010-03-22",
        "epoch_date_close_approach" : 1269241200000,
        "relative_velocity" : {
          "kilometers_per_second" : "14.864496346",
          "kilometers_per_hour" : "53512.186845474",
          "miles_per_hour" : "33250.3918762891"
        },
        "miss_distance" : {
          "astronomical" : "0.2557921028",
          "lunar" : "99.5031280518",
          "kilometers" : "38265956",
          "miles" : "23777362"
        },
        "orbiting_body" : "Earth"
      } ],
      "orbital_data" : {
        "orbit_id" : "95",
        "orbit_determination_date" : "2017-05-22 06:20:27",
        "orbit_uncertainty" : "0",
        "minimum_orbit_intersection" : ".00329405",
        "jupiter_tisserand_invariant" : "5.353",
        "epoch_osculation" : "2458000.5",
        "eccentricity" : ".6755187385301357",
        "semi_major_axis" : "1.113823692887633",
        "inclination" : "3.056680155229406",
        "ascending_node_longitude" : "189.9762295959387",
        "orbital_period" : "429.3615050267971",
        "perihelion_distance" : ".361414916923202",
        "perihelion_argument" : "230.933756987141",
        "aphelion_distance" : "1.866232468852064",
        "perihelion_time" : "2457791.159575689940",
        "mean_anomaly" : "175.5223788562929",
        "mean_motion" : ".8384542996641764",
        "equinox" : "J2000"
      }
    }, {
      "links" : {
        "self" : "https://api.nasa.gov/neo/rest/v1/neo/2411165?api_key=t0TVs3DtDT2H8Oy2Zy8m2eVrNsAVKAexjcZXUckd"
      },
      "neo_reference_id" : "2411165",
      "name" : "411165 (2010 DF1)",
      "nasa_jpl_url" : "http://ssd.jpl.nasa.gov/sbdb.cgi?sstr=2411165",
      "absolute_magnitude_h" : 21.8,
      "estimated_diameter" : {
        "kilometers" : {
          "estimated_diameter_min" : 0.1160259082,
          "estimated_diameter_max" : 0.2594418179
        },
        "meters" : {
          "estimated_diameter_min" : 116.0259082094,
          "estimated_diameter_max" : 259.4418179074
        },
        "miles" : {
          "estimated_diameter_min" : 0.0720951346,
          "estimated_diameter_max" : 0.1612096218
        },
        "feet" : {
          "estimated_diameter_min" : 380.6624406898,
          "estimated_diameter_max" : 851.1870938635
        }
      },
      "is_potentially_hazardous_asteroid" : true,
      "close_approach_data" : [ {
        "close_approach_date" : "2010-03-22",
        "epoch_date_close_approach" : 1269241200000,
        "relative_velocity" : {
          "kilometers_per_second" : "13.5999479701",
          "kilometers_per_hour" : "48959.812692225",
          "miles_per_hour" : "30421.7236142328"
        },
        "miss_distance" : {
          "astronomical" : "0.2238535826",
          "lunar" : "87.0790481567",
          "kilometers" : "33488020",
          "miles" : "20808492"
        },
        "orbiting_body" : "Earth"
      } ],
      "orbital_data" : {
        "orbit_id" : "18",
        "orbit_determination_date" : "2017-04-06 09:21:38",
        "orbit_uncertainty" : "0",
        "minimum_orbit_intersection" : ".0436135",
        "jupiter_tisserand_invariant" : "4.155",
        "epoch_osculation" : "2458000.5",
        "eccentricity" : ".5029971333722685",
        "semi_major_axis" : "1.598458759402439",
        "inclination" : "20.07496488649296",
        "ascending_node_longitude" : "154.9054497924404",
        "orbital_period" : "738.1601241636142",
        "perihelion_distance" : ".7944385856092195",
        "perihelion_argument" : "101.7625655179864",
        "aphelion_distance" : "2.402478933195658",
        "perihelion_time" : "2458292.552328171119",
        "mean_anomaly" : "217.5663535594904",
        "mean_motion" : ".4876990617827054",
        "equinox" : "J2000"
      }
    } ]
  }
}